STATION NAME,AGENCY,NO. OF PORTS,STREET,CITY,STATE,POSTCODE,BOROUGH
DOC_MOBI_1,DOC,1,Hazen St,Riker's Island,New York,10474,
DOH 56 DRIVE NISSAN,DOH,1,56th Dr.,Maspeth,New York,11378,QUEENS
DOH BEDFORD NISSAN 1,DOH,1,Throop Ave.,Brooklyn,New York,11221,BROOKLYN
DOH BEDFORD NISSAN 2,DOH,1,Throop Ave.,Brooklyn,New York,11221,BROOKLYN
DOH BELLEVUE NISSAN 1,DOH,1,1st Ave.,New York,New York,10016,MANHATTAN
DOH BELLEVUE NISSAN 2,DOH,1,1st Ave.,New York,New York,10016,MANHATTAN
DOT LOT 190 ST 1,DOT,1,Jerome Ave,Bronx,New York,10468,BRONX
DOT LOT 190 ST 2,DOT,1,Jerome Ave,Bronx,New York,10468,BRONX
DOT LOT 190 ST 3,DOT,1,Jerome Ave,Bronx,New York,10468,BRONX
DOT LOT 190 ST 4,DOT,1,Jerome Ave,Bronx,New York,10468,BRONX
DOT LOT 190 ST 5,DOT,1,Jerome Ave,Bronx,New York,10468,BRONX
DOT LOT 3510 JEROME AVE 1,DOT,1,Jerome Ave,Bronx,New York,10467,BRONX
DOT LOT 3510 JEROME AVE 2,DOT,1,Jerome Ave,Bronx,New York,10467,BRONX
DOT LOT 3510 JEROME AVE 3,DOT,1,Jerome Ave,Bronx,New York,10467,BRONX
DOT LOT BAY RIDGE 1,DOT,1,Fifth Avenue,Brooklyn,New York,11209,BROOKLYN
DOT LOT BAY RIDGE 2,DOT,1,Fifth Avenue,Brooklyn,New York,11209,BROOKLYN
DOT LOT BAY RIDGE 3,DOT,1,Fifth Avenue,Brooklyn,New York,11209,BROOKLYN
DOT LOT BAY RIDGE 4,DOT,1,Fifth Avenue,Brooklyn,New York,11209,BROOKLYN
DOT LOT BAY RIDGE 5,DOT,1,Fifth Avenue,Brooklyn,New York,11209,BROOKLYN
DOT LOT COURT SQ 1,DOT,1,Court Square,Queens,New York,11101,QUEENS
DOT LOT COURT SQ 2,DOT,1,Court Square,Queens,New York,11101,QUEENS
DOT LOT COURT SQ 3,DOT,1,Court Square,Queens,New York,11101,QUEENS
DOT LOT COURT SQ 4,DOT,1,Court Square,Queens,New York,11101,QUEENS
DOT LOT COURT SQ 5,DOT,1,Court Square,Queens,New York,11101,QUEENS
DOT LOT COURT SQ 6,DOT,1,Court Square,Queens,New York,11101,QUEENS
DOT LOT COURT SQ 7,DOT,1,Court Square,Queens,New York,11101,QUEENS
DOT LOT COURT SQ 8,DOT,1,Court Square,Queens,New York,11101,QUEENS
DOT LOT ESSEX ST 1,DOT,1,Essex Street,New York,New York,10002,MANHATTAN
DOT LOT ESSEX ST 2,DOT,1,Essex Street,New York,New York,10002,MANHATTAN
DOT LOT ESSEX ST 3,DOT,1,Essex Street,New York,New York,10002,MANHATTAN
DOT LOT ESSEX ST 4,DOT,1,Essex Street,New York,New York,10002,MANHATTAN
DOT LOT ESSEX ST 5,DOT,1,Essex Street,New York,New York,10002,MANHATTAN
DOT LOT QUEENS BORO HALL 1,DOT,1,126th Street,Queens,New York,11415,QUEENS
DOT LOT QUEENS BORO HALL 2,DOT,1,126th Street,Queens,New York,11415,QUEENS
DOT LOT QUEENS BORO HALL 3,DOT,1,126th Street,Queens,New York,11415,QUEENS
DOT LOT QUEENS BORO HALL 4,DOT,1,126th Street,Queens,New York,11415,QUEENS
DOT LOT QUEENS FAMILY COURT 1,DOT,1,Archer Avenue,Queens,New York,11432,QUEENS
DOT LOT QUEENS FAMILY COURT 2,DOT,1,Archer Avenue,Queens,New York,11432,QUEENS
DOT LOT QUEENS FAMILY COURT 3,DOT,1,Archer Avenue,Queens,New York,11432,QUEENS
DOT LOT ST GEORGE 1,DOT,1,Central Avenue,Staten Island,New York,10301,STATEN IS
DOT LOT ST GEORGE 2,DOT,1,Central Avenue,Staten Island,New York,10301,STATEN IS
DOT LOT ST GEORGE 3,DOT,1,Central Avenue,Staten Island,New York,10301,STATEN IS
DOT LOT ST GEORGE 4,DOT,1,Central Avenue,Staten Island,New York,10301,STATEN IS
DOT LOT ST GEORGE 5,DOT,1,Central Avenue,Staten Island,New York,10301,STATEN IS
NYC FLEET / ACSLINDENBLVDBK,ACS,1,Linden Blvd,Brooklyn,New York,11208,BROOKLYN
NYC FLEET / ACSSTMARKSPL1,ACS,1,St Marks Pl,Staten Island,New York,10301,STATEN IS
NYC FLEET / CITYHALL EAST,CITYHALL,2,New York City Hall,New York,New York,10007,MANHATTAN
NYC FLEET / CITYHALL WEST,CITYHALL,2,New York City Hall,New York,New York,10007,MANHATTAN
NYC FLEET / DCAS_1CENTRDCFC,DCAS,1,Centre St,New York,New York,10007,MANHATTAN
NYC FLEET / DCAS_1CENTRE SL,DCAS,1,Centre St,New York,New York,10007,MANHATTAN
NYC FLEET / DCAS_1CENTRE_L3,DCAS,1,Centre St,New York,New York,10007,MANHATTAN
NYC FLEET / DCAS_KENTAVE1,DCAS,1,Kent Ave,Brooklyn,New York,11249,BROOKLYN
NYC FLEET / DCAS_KENTAVE2,DCAS,1,Kent Ave,Brooklyn,New York,11249,BROOKLYN
NYC FLEET / DCAS_KENTAVE3,DCAS,1,Kent Ave,Brooklyn,New York,11249,BROOKLYN
NYC FLEET / DCAS100GLD_1_L3,DCAS,1,Gold St,New York,New York,10038,MANHATTAN
NYC FLEET / DCAS100GLD_2_L3,DCAS,1,Gold St,New York,New York,10038,MANHATTAN
NYC FLEET / DCAS100GOLD,DCAS,1,Gold St,New York,New York,10038,MANHATTAN
NYC FLEET / DCASCSTHSE_1_L3,DCAS,1,Metropolitan Ave,Middle Village,New York,11379,QUEENS
NYC FLEET / DCASCSTHSE_2_L3,DCAS,1,Metropolitan Ave,Middle Village,New York,11379,QUEENS
NYC FLEET / DCASNAVYYARD01,DCAS,1,Navy St,Brooklyn,New York,11201,BROOKLYN
NYC FLEET / DCASNAVYYARD02,DCAS,1,Navy St,Brooklyn,New York,11201,BROOKLYN
NYC FLEET / DCASNAVYYARD03,DCAS,1,Navy St,Brooklyn,New York,11201,BROOKLYN
NYC FLEET / DDC_LIC-2,DDC,2,Thomson Ave,LIC,New York,11101,QUEENS
NYC FLEET / DDC_LIC-3,DDC,1,31st St,LIC,New York,11101,
NYC FLEET / DDC_LICARC-1,DDC,1,Thomson Ave,LIC,New York,11101,QUEENS
NYC FLEET / DDC_LICARC-2,DDC,1,Thomson Ave,Long Island City,New York,11101,QUEENS
NYC FLEET / DEP_ CONEY ISLA,DEP,2,Knapp St,Brooklyn,New York,11235,BROOKLYN
NYC FLEET / DEP_26WARD# 1,DEP,2,Flatlands Ave,Brooklyn,New York,11207,BROOKLYN
NYC FLEET / DEP_26WARD# 2,DEP,2,Flatlands Ave,New York,New York,11207,BROOKLYN
NYC FLEET / DEP_3701JEROME1,DEP,1,Jerome Ave,New York,New York,10467,BRONX
NYC FLEET / DEP_3701JEROME2,DEP,2,Jerome Ave,Bronx,New York,10467,BRONX
NYC FLEET / DEP_930ZEREGA_1,DEP,2,Zerega Ave,East Bronx,New York,10473,BRONX
NYC FLEET / DEP_ASTORIA #1,DEP,2,Berrian Blvd,Queens,New York,11105,QUEENS
NYC FLEET / DEP_ASTORIA#2,DEP,2,Berrian Blvd,Queens,New York,11105,QUEENS
NYC FLEET / DEP_CATDELUVB#1,DEP,1,Walker Rd,Valhalla,New York,10595,
NYC FLEET / DEP_CLOVEPUMP,DEP,2,Victory Blvd,Staten Island,New York,10301,STATEN IS
NYC FLEET / DEP_CROTONFP-BX,DEP,2,Jerome Ave,BRONX,New York,10467,BRONX
NYC FLEET / DEP_CROTONFP-S1,DEP,1,Jerome Ave,Bronx,New York,10467,BRONX
NYC FLEET / DEP_CRSSRIVER-1,DEP,2,Cross River Rd,Katonah,New York,10536,
NYC FLEET / DEP_CRSSRIVER-2,DEP,2,Cross River Rd,Katonah,New York,10536,
NYC FLEET / DEP_FMC,DEP,1,Grand Ave,Maspeth,New York,11378,QUEENS
NYC FLEET / DEP_GRAHAMSVLLE,DEP,2,NY-42,Grahamsville,New York,12740,
NYC FLEET / DEP_HILLVW-S1,DEP,1,Central Park Ave,Yonkers,New York,10704,
NYC FLEET / DEP_HILLVW-S2,DEP,1,Central Park Ave,Yonkers,New York,10704,
NYC FLEET / DEP_HILLVW1A-B,DEP,2,Hillview Ave,Yonkers,New York,10704,
NYC FLEET / DEP_JAMAICAPLNT,DEP,1,134th St,Jamaica,New York,11420,QUEENS
NYC FLEET / DEP_KINGSTON-1,DEP,2,Smith Ave,Kingston,New York,12401,
NYC FLEET / DEP_KINGSTON-2,DEP,2,Smith Ave,Kingston,New York,12401,
NYC FLEET / DEP_KINGSTON-3,DEP,2,Smith Ave,Kingston,New York,12401,
NYC FLEET / DEP_KINGSTONDPS,DEP,2,Flatbush Ave,Kingston,New York,12401,
NYC FLEET / DEP_LFRK_66+67,DEP,2,Junction Blvd,Flushing,New York,11373,QUEENS
NYC FLEET / DEP_LFRK_68+69,DEP,2,Junction Blvd,Flushing,New York,11373,QUEENS
NYC FLEET / DEP_LFRK_70+71,DEP,2,Junction Blvd,Flushing,New York,11373,QUEENS
NYC FLEET / DEP_LFRK_72+73,DEP,2,Junction Blvd,Flushing,New York,11373,QUEENS
NYC FLEET / DEP_LFRK_74+75,DEP,2,Junction Blvd,Flushing,New York,11373,QUEENS
NYC FLEET / DEP_LFRK_76+77,DEP,2,Junction Blvd,Flushing,New York,11373,QUEENS
NYC FLEET / DEP_LFRK_78+79,DEP,2,Junction Blvd,Flushing,New York,11373,QUEENS
NYC FLEET / DEP_LFRK_80+81,DEP,2,Junction Blvd,Corona,New York,11373,QUEENS
NYC FLEET / DEP_LFRK_82+83,DEP,2,Junction Blvd,Corona,New York,11373,QUEENS
NYC FLEET / DEP_LFRK101+102,DEP,2,57th Ave,Corona,New York,11368,QUEENS
NYC FLEET / DEP_LFRK103+104,DEP,2,57th Ave,Corona,New York,11368,QUEENS
NYC FLEET / DEP_LFRK105+106,DEP,2,57th Ave,Corona,New York,11368,QUEENS
NYC FLEET / DEP_LFRK107+108,DEP,2,57th Ave,Corona,New York,11368,QUEENS
NYC FLEET / DEP_LFRK109+110,DEP,2,Junction Blvd,Corona,New York,11373,QUEENS
NYC FLEET / DEP_LFRK111+112,DEP,2,57th Ave,Corona,New York,11368,QUEENS
NYC FLEET / DEP_LFRK113+114,DEP,2,Junction Blvd,Flushing,New York,11373,QUEENS
NYC FLEET / DEP_LFRK115+116,DEP,2,Junction Blvd,Flushing,New York,11373,QUEENS
NYC FLEET / DEP_LFRK117+118,DEP,2,Junction Blvd,Flushing,New York,11373,QUEENS
NYC FLEET / DEP_NCVC1,DEP,1,Greenpoint Ave,Brooklyn,New York,11222,BROOKLYN
NYC FLEET / DEP_NCVC2,DEP,1,Greenpoint Ave,Brooklyn,New York,11222,BROOKLYN
NYC FLEET / DEP_NEWTOWN CRE,DEP,2,Greenpoint Ave,Brooklyn,New York,11222,BROOKLYN
NYC FLEET / DEP_NEWTOWNC-S1,DEP,1,Greenpoint Ave,Greenpoint,New York,11222,BROOKLYN
NYC FLEET / DEP_NEWTOWNC-S2,DEP,1,Greenpoint Ave,Greenpoint,New York,11222,BROOKLYN
NYC FLEET / DEP_OAKWOOD BEA,DEP,2,Mill Road,Staten Island,New York,10306,STATEN IS
NYC FLEET / DEP_OWLS HE,DEP,2,Shore Rd,Brooklyn,New York,11220,BROOKLYN
NYC FLEET / DEP_PORT RICHMO,DEP,2,Richmond Terrace,Staten Island,New York,10310,STATEN IS
NYC FLEET / DEP_PORTJERVIS,DEP,2,N Maple Ave,Port Jervis,New York,12771,
NYC FLEET / DEP_QNS180ST-S1,DEP,1,180th St,Jamaica,New York,11433,QUEENS
NYC FLEET / DEP_QNSREPAIR01,DEP,2,180th St,Jamaica,New York,11433,QUEENS
NYC FLEET / DEP_QNSREPAIR02,DEP,2,180th St,Jamaica,New York,11433,QUEENS
NYC FLEET / DEP_QNSREPAIR03,DEP,2,180th St,Jamaica,New York,11433,QUEENS
NYC FLEET / DEP_QNSREPAIR04,DEP,2,180th St,Jamaica,New York,11433,QUEENS
NYC FLEET / DEP_RED HOOK,DEP,2,Flushing Ave,Brooklyn,New York,11205,BROOKLYN
NYC FLEET / DEP_ROCKAWAY106,DEP,2,Beach Channel Dr,Queens,New York,11694,
NYC FLEET / DEP_TALLMAN ISL,DEP,2,Powell's Cove Blvd,Queens,New York,11356,
NYC FLEET / DEP_W135ST#1,DEP,2,W 135th St,New York,New York,10031,MANHATTAN
NYC FLEET / DEP_W135ST#2,DEP,2,W 135th St,New York,New York,10031,MANHATTAN
NYC FLEET / DEP_WARDMRNE-1,DEP,1,6 Dr,New York,New York,10035,MANHATTAN
NYC FLEET / DEP_WARDNEWADMN,DEP,2,B Rd,New York,New York,10035,MANHATTAN
NYC FLEET / DEP_WARDS ISLAN,DEP,2,Hell Gate Cir,New York,New York,10035,
NYC FLEET / DEP_WARDS_1_L3,DEP,1,B Rd,New York,New York,10035,MANHATTAN
NYC FLEET / DEP_WARDS-ARC,DEP,1,3rd Dr,New York,New York,10035,MANHATTAN
NYC FLEET / DEP_WARDSADMN-1,DEP,1,2nd Dr,New York,New York,10035,MANHATTAN
NYC FLEET / DEP_WARDSTLR-1,DEP,1,A Rd,New York,New York,10035,MANHATTAN
NYC FLEET / DEP_WARDTRLR116,DEP,2,4th Dr,New York,New York,10035,MANHATTAN
NYC FLEET / DEP_WS_JEROME,DEP,2,Jerome Ave,West Bronx,New York,10468,BRONX
NYC FLEET / DEP_WS465COLU1,DEP,2,Columbus Ave,Valhalla,New York,10595,
NYC FLEET / DEP_WS465COLU2,DEP,2,Columbus Ave,Valhalla,New York,10595,
NYC FLEET / DEP_WT_HP_ADMIN,DEP,2,Ryawa Ave,Bronx,New York,10474,BRONX
NYC FLEET / DEP_WT_HP_CONST,DEP,2,Ryawa Ave,Bronx,New York,10474,BRONX
NYC FLEET / DEP_WT_PAEDERGA,DEP,2,Ralph Ave,Brooklyn,New York,11234,BROOKLYN
NYC FLEET / DEP_WTNEWTOWN-1,DEP,1,Greenpoint Ave,Brooklyn,New York,11222,BROOKLYN
NYC FLEET / DEPGRAHAMWWTP02,DEP,2,NY-42,Grahamsville,New York,12740,
NYC FLEET / DEPNEWTOWNCRK01,DEP,2,Greenpoint Ave,Greenpoint,New York,11222,BROOKLYN
NYC FLEET / DEPNEWTOWNCRK02,DEP,2,Greenpoint Ave,Greenpoint,New York,11222,BROOKLYN
NYC FLEET / DEPNEWTOWNCRK03,DEP,2,Greenpoint Ave,Greenpoint,New York,11222,BROOKLYN
NYC FLEET / DEPNORTHRIVER01,DEP,1,W 145th St,New York,New York,10031,MANHATTAN
NYC FLEET / DEPNTWNCRK_1_L3,DEP,1,Greenpoint Ave,Greenpoint,New York,11222,BROOKLYN
NYC FLEET / DHS_COMM#27,DHS,1,Sunken Garden Loop,New York,New York,10035,MANHATTAN
NYC FLEET / DOC_ HAZEN ST,DOC,1,Hazen St,New York,New York,11370,QUEENS
NYC FLEET / DOC_DIVISION-1,DOC,2,N Perimeter Rd,Bronx,New York,11320,
NYC FLEET / DOC_DIVISION-2,DOC,2,Hillside Ave,Bronx,New York,10474,
NYC FLEET / DOC_ENVHEALTH,DOC,2,Hillside Ave,Bronx,New York,10474,
NYC FLEET / DOC_ETAYLOR-S,DOC,1,Rikers Is Br Appr,Flushing,New York,11371,
NYC FLEET / DOC_FFF-CPT,DOC,2,Construction Way,Rikers Island,New York,11105,
NYC FLEET / DOC_FLEETMT1A-B,DOC,2,Hazen St.,Rikers Island,New York,11370,QUEENS
NYC FLEET / DOC_FLEETMT2A-B,DOC,2,Hazen Street,Rikers Island,New York,11370,QUEENS
NYC FLEET / DOC_FLEETUNIT-1,DOC,2,Hazen St,Bronx,New York,11474,QUEENS
NYC FLEET / DOC_FMRD-WH,DOC,2,Hazen St,Riker's Island,New York,10474,
NYC FLEET / DOC_HAZENDCFC,DOC,1,Hazen St,Riker's Island,New York,10474,
NYC FLEET / DOC_HAZENLOT-S1,DOC,1,Hazen St,Rikers Island,New York,10474,
NYC FLEET / DOC_HAZENLOT-S2,DOC,1,Hazen St,Rikers Island,New York,10474,
NYC FLEET / DOC_HAZENLOT-S3,DOC,1,Hazen St,Rikers Island,New York,10474,
NYC FLEET / DOC_HAZENLT1A-B,DOC,2,Hazen St,Riker's Island,New York,10474,
NYC FLEET / DOC_HAZENLT2A-B,DOC,2,Hazen St,Riker's Island,New York,10474,
NYC FLEET / DOC_PREA-1,DOC,2,Unnamed Road,Bronx,New York,11371,
NYC FLEET / DOC_PREA-2,DOC,2,Unnamed Road,Bronx,New York,11371,
NYC FLEET / DOC_QNSCOURT,DOC,2,82nd Ave,Kew Gardens,New York,11415,QUEENS
NYC FLEET / DOC_RI-EOC,DOC,1,Hazen St,East Elmhurst,New York,11370,QUEENS
NYC FLEET / DOC_RI-INVDIV-1,DOC,2,Hillside Ave,Bronx,New York,10474,
NYC FLEET / DOC_RI-INVDIV-2,DOC,2,Hillside Ave,Bronx,New York,10474,
NYC FLEET / DOC_RI-INVDIV-S,DOC,1,Hillside Ave,Bronx,New York,10474,
NYC FLEET / DOC_VBAIN-S,DOC,1,Halleck Street,Bronx,New York,10474,BRONX
NYC FLEET / DOCCIBWESTFAC,DOC,2,West Facility CIB,Elmhurst,New York,11370,
NYC FLEET / DOCCMUTRAILER01,DOC,2,Unnamed Road,Flushing,New York,11371,
NYC FLEET / DOCCWOD3,DOC,2,Hillside Ave,Bronx,New York,10474,
NYC FLEET / DOCFLEETMT_1_L3,DOC,1,Hazen St,Flushing,New York,11370,QUEENS
NYC FLEET / DOCFLEETMT_2_L3,DOC,1,Hazen St.,Flushing,New York,11370,QUEENS
NYC FLEET / DOCTRANSARSEN01,DOC,2,Hillside Ave,Bronx,New York,10474,
NYC FLEET / DOCTRANSARSEN02,DOC,2,Hillside Ave,Bronx,New York,10474,
NYC FLEET / DOCWELLNES_1_L3,DOC,1,Hazen St,Bronx,New York,10474,
NYC FLEET / DOE_ Q0001,DOE,1,84th Ave,Queens,New York,11432,QUEENS
NYC FLEET / DOE_ Q0002,DOE,1,84th Ave,Queens,New York,11432,QUEENS
NYC FLEET / DOE_ R0001,DOE,1,Hylan Blvd,Staten Island,New York,10309,STATEN IS
NYC FLEET / DOE_131LIV-1,DOE,2,Livingston St,Downtown Brooklyn,New York,11201,BROOKLYN
NYC FLEET / DOE_131LIV-2,DOE,1,Livingston St,Brooklyn,New York,11201,BROOKLYN
NYC FLEET / DOE_B&GHS-1,DOE,1,Fulton St,Brooklyn,New York,11213,BROOKLYN
NYC FLEET / DOE_BRONXX475,DOE,1,Terrace Ave.,Bronx,New York,10463,
NYC FLEET / DOE_EDISONHS,DOE,1,84th Ave,Queens,New York,11432,QUEENS
NYC FLEET / DOE_JFKHS,DOE,1,Teunissen Pl,Bronx,New York,10463,BRONX
NYC FLEET / DOE_K0001,DOE,1,Bedford Ave,Brooklyn,New York,11222,BROOKLYN
NYC FLEET / DOE_M466,DOE,1,Audubon Ave,New York,New York,10040,MANHATTAN
NYC FLEET / DOE_M646,DOE,1,E 96th St,New York,New York,10128,MANHATTAN
NYC FLEET / DOE_MTWAIN-1,DOE,1,Neptune Ave,Brooklyn,New York,11224,BROOKLYN
NYC FLEET / DOE_Q80101,DOE,2,44th Dr,LIC,New York,11101,
NYC FLEET / DOE_Q80102,DOE,2,Vernon Blvd,LIC,New York,11101,QUEENS
NYC FLEET / DOE_SBCHS-1,DOE,1,Conover St,Brooklyn,New York,11231,BROOKLYN
NYC FLEET / DOE1230ZEREGAAV,DOE,1,Zerega Ave,Bronx,New York,10462,BRONX
NYC FLEET / DOE4436VERNON#3,DOE,1,Vernon Blvd,New York,New York,11101,QUEENS
NYC FLEET / DOE715OCEANTSI1,DOE,1,Ocean Terrace,Staten Island,New York,10301,STATEN IS
NYC FLEET / DOE715OCEANTSI2,DOE,1,Ocean Terrace,Staten Island,New York,10301,STATEN IS
NYC FLEET / DOE90-27SUTPHIN,DOE,2,Sutphin Blvd,Jamaica,New York,11435,
NYC FLEET / DOEFACILITIES 1,DOE,2,Vernon Blvd,Queens,New York,11101,QUEENS
NYC FLEET / DOEFACILITIES 2,DOE,2,Vernon Blvd,Queens,New York,11101,QUEENS
NYC FLEET / DOEM535,DOE,2,West 50th St,New York,New York,10019,MANHATTAN
NYC FLEET / DOEPETRIDESARC,DOE,1,Safety City Blvd,Todt Hill,New York,10301,
NYC FLEET / DOEVERNON_1_L3,DOE,1,Vernon Blvd,LIC,New York,11101,QUEENS
NYC FLEET / DOEVERNONBLVD-1,DOE,1,44th Dr,LIC,New York,11101,QUEENS
NYC FLEET / DOEVERNONBLVD-2,DOE,1,Vernon Blvd,LIC,New York,11101,QUEENS
NYC FLEET / DOEVERNONBLVD-3,DOE,1,Vernon Blvd,LIC,New York,11101,QUEENS
NYC FLEET / DOEVERNONBLVD-4,DOE,1,Vernon Blvd,LIC,New York,11101,QUEENS
NYC FLEET / DOEVERNONBLVD-5,DOE,1,Vernon Blvd,LIC,New York,11101,QUEENS
NYC FLEET / DOH_56 DRIVE,DOH,1,56th Dr.,queens,New York,11378,QUEENS
NYC FLEET / DOH_BEDFORDHC,DOH,1,Putnam Ave,Bedford-Stuyvesant,New York,11221,BROOKLYN
NYC FLEET / DOT_29ST-S1,DOT,1,29th St,Greenwood,New York,11232,BROOKLYN
NYC FLEET / DOT_29ST-S2,DOT,1,29th St,Greenwood,New York,11232,BROOKLYN
NYC FLEET / DOT_32-11HARPER,DOT,1,Harper St,Queens,New York,11368,QUEENS
NYC FLEET / DOT_HARPER ST C,DOT,1,Harper St,Queens,New York,11368,
NYC FLEET / DOT_HARPER-S1,DOT,1,Harper St,Flushing,New York,11368,QUEENS
NYC FLEET / DOT_HARPER-S2,DOT,1,Harper St,Corona,New York,11368,QUEENS
NYC FLEET / DOT22STLOT-1,DOT,2,22nd St,Queens,New York,11101,QUEENS
NYC FLEET / DOT22STLOT-2,DOT,2,22nd St,Queens,New York,11101,QUEENS
NYC FLEET / DOT22STLOT-3,DOT,2,22nd St,Queens,New York,11101,QUEENS
NYC FLEET / DOT2811QNSPLAZA,DOT,1,Queens Plaza North,Queens,New York,11101,QUEENS
NYC FLEET / DOT3MASPETHQNS,DOT,1,57th Rd,Queens,New York,11378,QUEENS
NYC FLEET / DOT448HAMILTON,DOT,2,Hamilton Ave,brooklyn,New York,11232,BROOKLYN
NYC FLEET / DOT4MASPETHQNS,DOT,1,57th Rd,Queens,New York,11378,QUEENS
NYC FLEET / DOTFLATLANDS-S1,DOT,1,E 76th St,Canarsie,New York,11236,BROOKLYN
NYC FLEET / DOTPITKINAVE-1,DOT,1,Pitkin Ave,Queens,New York,11417,QUEENS
NYC FLEET / DOTPITKINAVE-2,DOT,1,Pitkin Ave,Queens,New York,11417,QUEENS
NYC FLEET / DOTPITKINAVEQN1,DOT,1,Pitkin Ave,Queens,New York,11417,QUEENS
NYC FLEET / DOTPITKINAVEQN2,DOT,1,Pitkin Ave,Queens,New York,11417,QUEENS
NYC FLEET / DOTQNSBLVD-1,DOT,1,Queens Blvd,Queens,New York,11101,QUEENS
NYC FLEET / DOTQNSBLVD-2,DOT,1,Queens Blvd,Queens,New York,11101,QUEENS
NYC FLEET / DOTQNSBLVD-3,DOT,1,Queens Blvd,Queens,New York,11101,QUEENS
NYC FLEET / DOTQNSBLVD-4,DOT,1,Queens Blvd,Queens,New York,11101,QUEENS
NYC FLEET / DOTSIDUBOIS,DOT,1,Dubois Ave,STATEN ISLAND,New York,10310,STATEN IS
NYC FLEET / DOTWILLIAMSBR,DOT,2,Williamsbridge Rd,Bronx,New York,10461,BRONX
NYC FLEET / DPR_5BORO-ARC1,DPR,1,Bronx Shore Rd,New York,New York,10035,MANHATTAN
NYC FLEET / DPR_5BORO-ARC2,DPR,1,Bronx Shore Rd,New York,New York,10035,MANHATTAN
NYC FLEET / DPR_5BORO-ARC3,DPR,1,Bronx Shore Rd,New York,New York,10035,MANHATTAN
NYC FLEET / DPR_5BORO#10A-B,DPR,2,Bronx Shore Rd,New York,New York,10035,
NYC FLEET / DPR_5BORO#11A-B,DPR,2,Bronx Shore Rd,New York,New York,10035,
NYC FLEET / DPR_5BORO#12A-B,DPR,2,Bronx Shore Rd,New York,New York,10035,
NYC FLEET / DPR_5BORO#1A-B,DPR,2,Bronx Shore Rd,New York,New York,10035,MANHATTAN
NYC FLEET / DPR_5BORO#2A-B,DPR,2,Bronx Shore Rd,New York,New York,10035,MANHATTAN
NYC FLEET / DPR_5BORO#3A-B,DPR,2,Bronx Shore Rd,New York,New York,10035,MANHATTAN
NYC FLEET / DPR_5BORO#4A-B,DPR,2,Bronx Shore Rd,New York,New York,10035,MANHATTAN
NYC FLEET / DPR_5BORO#5A-B,DPR,2,Bronx Shore Rd,New York,New York,10035,MANHATTAN
NYC FLEET / DPR_5BORO#6A-B,DPR,2,Bronx Shore Rd,New York,New York,10035,MANHATTAN
NYC FLEET / DPR_5BORO#7A-B,DPR,2,Bronx Shore Rd,New York,New York,10035,
NYC FLEET / DPR_5BORO#8A-B,DPR,2,Bronx Shore Rd,New York,New York,10035,
NYC FLEET / DPR_5BORO#9A-B,DPR,2,Bronx Shore Rd,New York,New York,10035,
NYC FLEET / DPR_5BORONORTH1,DPR,1,E 138th St,Bronx,New York,10454,BRONX
NYC FLEET / DPRICAHNLOTE-S2,DPR,1,Main Rdwy/ICAHN Stadium,New York,New York,10035,
NYC FLEET / DPR_5BORONORTH2,DPR,1,E 138th St,Bronx,New York,10454,BRONX
NYC FLEET / DPR_5BORONORTH3,DPR,1,E 138th St,Bronx,New York,10454,BRONX
NYC FLEET / DPR_5BORONORTH4,DPR,1,E 138th St,Bronx,New York,10454,BRONX
NYC FLEET / DPR_AL ORTER #6,DPR,1,Fowler Ave,Flushing,New York,11355,QUEENS
NYC FLEET / DPR_ALLIED #3,DPR,1,East Rd,Corona,New York,11368,QUEENS
NYC FLEET / DPR_ALLIED#1,DPR,1,East Rd,Corona,New York,11368,QUEENS
NYC FLEET / DPR_ALLIED#10,DPR,1,East Rd,Flushing,New York,11368,QUEENS
NYC FLEET / DPR_ALLIED#11,DPR,1,East Rd,Corona,New York,11368,QUEENS
NYC FLEET / DPR_ALLIED#12,DPR,1,East Rd,Corona,New York,11368,QUEENS
NYC FLEET / DPR_ALLIED#13,DPR,1,East Rd,Corona,New York,11368,QUEENS
NYC FLEET / DPR_ALLIED#14,DPR,1,East Rd,Corona,New York,11368,QUEENS
NYC FLEET / DPR_ALLIED#2,DPR,1,East Rd,Corona,New York,11368,QUEENS
NYC FLEET / DPR_ALLIED#4,DPR,1,East Rd,Corona,New York,11368,QUEENS
NYC FLEET / DPR_ALLIED#5,DPR,1,East Rd,Corona,New York,11368,QUEENS
NYC FLEET / DPR_ALLIED#6,DPR,1,East Rd,Corona,New York,11368,QUEENS
NYC FLEET / DPR_ALLIED#7,DPR,1,East Rd,Corona,New York,11368,QUEENS
NYC FLEET / DPR_ALLIED#8,DPR,1,East Rd,Corona,New York,11368,QUEENS
NYC FLEET / DPR_ALLIED#9,DPR,1,East Rd,Flushing,New York,11368,QUEENS
NYC FLEET / DPR_ALLIED2A-B,DPR,2,East Rd,Flushing,New York,11355,QUEENS
NYC FLEET / DPR_ALLIED3A-B,DPR,2,East Rd,Flushing,New York,11355,QUEENS
NYC FLEET / DPR_ALLIED4A-B,DPR,2,East Rd,Flushing,New York,11355,QUEENS
NYC FLEET / DPR_ALOERTER4#5,DPR,2,Fowler Ave,Flushing,New York,11355,QUEENS
NYC FLEET / DPR_CENTRALCOM1,DPR,2,Broome St,New York,New York,10002,MANHATTAN
NYC FLEET / DPR_CHELSEAPARK,DPR,1,W 27th St,New York,New York,10001,
NYC FLEET / DPR_CIG-S1,DPR,1,E 102nd St,Brooklyn,New York,11236,BROOKLYN
NYC FLEET / DPR_CIG-S2,DPR,1,E 102nd St,New York,New York,11236,BROOKLYN
NYC FLEET / DPR_GRACIEMAN,DPR,2,East End Ave,New York,New York,10028,MANHATTAN
NYC FLEET / DPR_ICAHN_1_L3,DPR,1,Central Rd,New York,New York,10035,MANHATTAN
NYC FLEET / DPR_ICAHN_2_L3,DPR,1,Central Rd,New York,New York,10035,MANHATTAN
NYC FLEET / DPR_ICAHN_3_L3,DPR,1,Central Rd,New York,New York,10035,MANHATTAN
NYC FLEET / DPR_LRP#1#2,DPR,2,Queens Plaza S,Long Island City,New York,11101,
NYC FLEET / DPR_ORCH-BCH-S1,DPR,1,Park Dr,Bronx,New York,10464,
NYC FLEET / DPR_SROOSEVELT1,DPR,2,Hester St,New York,New York,10002,
NYC FLEET / DPR_SROOSEVELT2,DPR,2,Hester St,New York,New York,10002,
NYC FLEET / DPR_VC-GAR-S1,DPR,1,Mosholu Ave,Bronx,New York,10471,
NYC FLEET / DPR_VC-GAR-S2,DPR,1,Broadway,North Riverdale,New York,10471,BRONX
NYC FLEET / DPR_WHRLMPIER,DPR,2,West 135th Street,New York,New York,10031,MANHATTAN
NYC FLEET / DPR5BOROBB_1_L3,DPR,1,Bronx Shore Rd,New York,New York,10035,MANHATTAN
NYC FLEET / DPR5BOROBB_2_L3,DPR,1,Bronx Shore Rd,New York,New York,10035,MANHATTAN
NYC FLEET / DPR5BOROBB1A-B,DPR,2,Bronx Shore Rd,New York,New York,10035,MANHATTAN
NYC FLEET / DPR5BOROBB2A-B,DPR,2,Bronx Shore Rd,New York,New York,10035,MANHATTAN
NYC FLEET / DPR5BOROBB3A-B,DPR,2,Bronx Shore Rd,New York,New York,10035,MANHATTAN
NYC FLEET / DPR5BOROBB4A-B,DPR,2,Bronx Shore Rd,New York,New York,10035,MANHATTAN
NYC FLEET / DPR5BOROBB5A-B,DPR,2,Bronx Shore Rd,New York,New York,10035,MANHATTAN
NYC FLEET / DPR5BOROBB6A-B,DPR,2,Bronx Shore Rd,New York,New York,10035,MANHATTAN
NYC FLEET / DPR86MNSHPS#1#2,DPR,2,85th St Transverse,New York,New York,10128,MANHATTAN
NYC FLEET / DPRABRYAN-S1,DPR,1,Middletown Rd,Bronx,New York,10465,BRONX
NYC FLEET / DPRABRYAN-S2,DPR,1,Middletown Rd,Bronx,New York,10465,BRONX
NYC FLEET / DPRALOERTER#1,DPR,1,Fowler Ave,Flushing,New York,11355,QUEENS
NYC FLEET / DPRALOERTER#2,DPR,1,Fowler Ave,Brooklyn,New York,11355,QUEENS
NYC FLEET / DPRALOERTER#3,DPR,1,Fowler Ave,Flushing,New York,11355,QUEENS
NYC FLEET / DPRARSENAL_1_L3,DPR,1,East Dr,New York,New York,10019,
NYC FLEET / DPRARSENAL#1,DPR,1,East Dr,New York,New York,10019,
NYC FLEET / DPRARSENAL#10,DPR,1,East Dr,New York,New York,10019,
NYC FLEET / DPRARSENAL#11,DPR,1,East Dr,New York,New York,10019,
NYC FLEET / DPRARSENAL#12,DPR,1,East Dr,New York,New York,10019,
NYC FLEET / DPRARSENAL#13,DPR,1,East Dr,New York,New York,10019,
NYC FLEET / DPRARSENAL#14,DPR,1,East Dr,New York,New York,10019,
NYC FLEET / DPRARSENAL#15,DPR,1,East Dr,New York,New York,10019,
NYC FLEET / DPRARSENAL#16,DPR,1,East Dr,New York,New York,10019,
NYC FLEET / DPRARSENAL#17,DPR,1,East Dr,New York,New York,10019,
NYC FLEET / DPRARSENAL#18,DPR,1,East Dr,New York,New York,10024,
NYC FLEET / DPRARSENAL#19,DPR,1,East Dr,New York,New York,10019,
NYC FLEET / DPRARSENAL#2,DPR,1,East Dr,New York,New York,10019,
NYC FLEET / DPRARSENAL#3,DPR,1,East Dr,New York,New York,10019,
NYC FLEET / DPRARSENAL#4,DPR,1,East Dr,New York,New York,10019,
NYC FLEET / DPRARSENAL#5,DPR,1,East Dr,New York,New York,10019,
NYC FLEET / DPRARSENAL#6,DPR,1,East Dr,New York,New York,10019,
NYC FLEET / DPRARSENAL#7,DPR,1,East Dr,New York,New York,10019,
NYC FLEET / DPRARSENAL#8,DPR,1,East Dr,New York,New York,10019,
NYC FLEET / DPRARSENAL#9,DPR,1,East Dr,New York,New York,10019,
NYC FLEET / DPRBKFORST#1A-B,DPR,2,Prospect Park West,Brooklyn,New York,11215,BROOKLYN
NYC FLEET / DPRBKFORST#2A-B,DPR,2,Prospect Park West,Brooklyn,New York,11215,BROOKLYN
NYC FLEET / DPRBKFORST#3A-B,DPR,2,Prospect Park West,Brooklyn,New York,11215,BROOKLYN
NYC FLEET / DPRBLUHERON1A-B,DPR,2,Poillon Ave,Annadale,New York,10312,STATEN IS
NYC FLEET / DPRBROOKFLD1A-B,DPR,2,Arthur Kill Rd,Staten Island,New York,10308,STATEN IS
NYC FLEET / DPRBROOKFLD2A-B,DPR,2,Arthur Kill Rd,Staten Island,New York,10308,STATEN IS
NYC FLEET / DPRBROOKFLD3A-B,DPR,2,Arthur Kill Rd,Staten Island,New York,10308,STATEN IS
NYC FLEET / DPRBROOKFLD4A-B,DPR,2,Arthur Kill Rd,Staten Island,New York,10308,STATEN IS
NYC FLEET / DPRBROOKLYNBPC,DPR,2,Furman St,Brooklyn Heights,New York,11201,BROOKLYN
NYC FLEET / DPRBUSHWINL#1#2,DPR,2,Kent Ave,Brooklyn,New York,11249,BROOKLYN
NYC FLEET / DPRBUSHWINL#3#4,DPR,2,N 10th St,Williamsburg,New York,11249,BROOKLYN
NYC FLEET / DPRBXFORST#1A-B,DPR,2,Bronx River Pkwy,Bronx,New York,10462,BRONX
NYC FLEET / DPRBXFORST#2A-B,DPR,2,Bronx River Pkwy,Bronx,New York,10462,BRONX
NYC FLEET / DPRBXFORST#3A-B,DPR,2,Bronx River Pkwy,Bronx,New York,10462,BRONX
NYC FLEET / DPRBXFORST#4A-B,DPR,2,Bronx River Pkwy,Bronx,New York,10462,BRONX
NYC FLEET / DPRBXFORST#5A-B,DPR,2,Unionport Rd,East Bronx,New York,10462,BRONX
NYC FLEET / DPRBXFORST#6A-B,DPR,2,Unionport Rd,East Bronx,New York,10462,BRONX
NYC FLEET / DPRBXFORST#7A-B,DPR,2,Unionport Rd,East Bronx,New York,10462,BRONX
NYC FLEET / DPRBXFORST#8A-B,DPR,2,Unionport Rd,BRONX,New York,10462,BRONX
NYC FLEET / DPRBXFORST#9A-B,DPR,2,Unionport Rd,BRONX,New York,10462,BRONX
NYC FLEET / DPRBXFRST#10A-B,DPR,2,Unionport Rd,BRONX,New York,10462,BRONX
NYC FLEET / DPRBXPEPNORTH-1,DPR,2,Westchester Av/Burr Av,Pelham Bay,New York,10461,
NYC FLEET / DPRBXPEPNORTH-2,DPR,2,Westchester Av/Burr Av,Pelham Bay,New York,10461,
NYC FLEET / DPRBXRANWIGWAM1,DPR,1,Bronx River Parkway-North East section,Bronx,New York,10462,
NYC FLEET / DPRBXRANWIGWAM2,DPR,1,Bronx River Parkway-North East section,Bronx,New York,10462,
NYC FLEET / DPRBXRANWIGWAM3,DPR,1,Bronx River Parkway-North East section,Bronx,New York,10462,
NYC FLEET / DPRBXRANWIGWAM4,DPR,1,Bronx River Parkway-North East section,Bronx,New York,10462,
NYC FLEET / DPRBXSTARLGT-1,DPR,1,Bronx River House,BRONX,New York,10459,BRONX
NYC FLEET / DPRBXSTARLGT-2,DPR,1,Bronx River House,BRONX,New York,10459,BRONX
NYC FLEET / DPRCALVAUX-S1,DPR,1,Shore Pkwy,Gravesend,New York,11214,BROOKLYN
NYC FLEET / DPRCALVAUX-S2,DPR,1,Shore Pkwy,Gravesend,New York,11214,BROOKLYN
NYC FLEET / DPRCONFHSE1A-B,DPR,2,Satterlee St,Tottenville,New York,10307,STATEN IS
NYC FLEET / DPRCROTONAPL#1,DPR,1,Fulton Ave,BRONX,New York,10457,BRONX
NYC FLEET / DPRCROTONAPL#2,DPR,1,Fulton Ave,Bronx,New York,10457,BRONX
NYC FLEET / DPRCUNINGHM1A-B,DPR,2,Union Tpke,Fresh Meadows,New York,11366,QUEENS
NYC FLEET / DPRCUNINGHM2A-B,DPR,2,Union Tpke,Fresh Meadows,New York,11366,QUEENS
NYC FLEET / DPRCUNINGHM3A-B,DPR,2,Union Tpke,Fresh Meadows,New York,11366,QUEENS
NYC FLEET / DPRCUNINGHM4A-B,DPR,2,Union Tpke,Fresh Meadows,New York,11366,QUEENS
NYC FLEET / DPRCUNINGHM5A-B,DPR,2,Grand Central Parkway N Svc Rd,Queens,New York,11423,
NYC FLEET / DPRCUNINGHM6A-B,DPR,2,Grand Central Parkway N Svc Rd,Queens,New York,11423,
NYC FLEET / DPRCUNINGHMARC,DPR,1,Cunningham Park State Rte,Fresh Meadows,New York,11366,QUEENS
NYC FLEET / DPRFLUSHING1A-B,DPR,2,Olmsted Dr,Corona,New York,11368,QUEENS
NYC FLEET / DPRFLUSHING2A-B,DPR,2,Olmsted Dr,Corona,New York,11368,QUEENS
NYC FLEET / DPRFLUSHING3A-B,DPR,2,Olmsted Dr,Corona,New York,11368,QUEENS
NYC FLEET / DPRFLUSHING4A-B,DPR,2,Olmsted Dr,Corona,New York,11368,QUEENS
NYC FLEET / DPRFLUSHING5A-B,DPR,2,Olmsted Dr,Corona,New York,11368,QUEENS
NYC FLEET / DPRFMAQUA-1A-B,DPR,2,Roosevelt Ave,Flushing,New York,11355,QUEENS
NYC FLEET / DPRFMAQUATIC-1,DPR,1,Meridian Road,Flushing,New York,11355,QUEENS
NYC FLEET / DPRFRKILLS1A-B,DPR,2,Unnamed Road,Staten Island,New York,10314,
NYC FLEET / DPRFRKILLS2A-B,DPR,2,Unnamed Road,Staten Island,New York,10314,
NYC FLEET / DPRFTTOTTEN-S1,DPR,1,Murray Ave,Fort Totten,New York,11359,
NYC FLEET / DPRFTTOTTEN-S2,DPR,1,Murray Ave,Fort Totten,New York,11359,
NYC FLEET / DPRFTTOTTEN1A-B,DPR,2,Bayside St,Bayside,New York,11359,
NYC FLEET / DPRFTTOTTEN2A-B,DPR,2,Bayside St,Bayside,New York,11359,
NYC FLEET / DPRFTTOTTEN3A-B,DPR,2,Bayside St,Bayside,New York,11359,
NYC FLEET / DPRGREENBELT#1,DPR,1,Brielle Ave,Staten Island,New York,10314,STATEN IS
NYC FLEET / DPRHIGHROCK#1,DPR,1,Nevada Ave,Staten Island,New York,10306,STATEN IS
NYC FLEET / DPRHIGHWAYP2-S1,DPR,1,Flatbush Ave,Brooklyn,New York,11234,BROOKLYN
NYC FLEET / DPRHIGHWAYP2-S2,DPR,1,Flatbush Ave,Brooklyn,New York,11234,BROOKLYN
NYC FLEET / DPRICAHNLOTE-S1,DPR,1,Main Rdwy/ICAHN Stadium,New York,New York,10035,
NYC FLEET / DPRICAHNLOTE-S3,DPR,1,Main Rdwy/Tennis Center 1,New York,New York,10035,
NYC FLEET / DPRICAHNSTADIUM,DPR,1,Randalls Is Rd,New York,New York,10035,
NYC FLEET / DPRLITCHFLD1A-B,DPR,2,Prospect Park West,Brooklyn,New York,11215,BROOKLYN
NYC FLEET / DPRLITCHFLD2A-B,DPR,2,Prospect Park West,Brooklyn,New York,11215,BROOKLYN
NYC FLEET / DPRLITCHFLD3A-B,DPR,2,Prospect Park West,Brooklyn,New York,11215,BROOKLYN
NYC FLEET / DPRLITCHFLD4A-B,DPR,2,Prospect Park West,Brooklyn,New York,11215,BROOKLYN
NYC FLEET / DPRLITCHFLD5A-B,DPR,2,Prospect Park West,Brooklyn,New York,11215,BROOKLYN
NYC FLEET / DPRLITCHFLD6A-B,DPR,2,Prospect Park West,Brooklyn,New York,11215,BROOKLYN
NYC FLEET / DPRLITCHFLD7A-B,DPR,2,Prospect Park West,Brooklyn,New York,11215,BROOKLYN
NYC FLEET / DPRLYONSARC,DPR,1,Hannah St,Tompkinsville,New York,10304,STATEN IS
NYC FLEET / DPRLYONSPL1A-B,DPR,2,Murray Hulbert Ave,Staten Island,New York,10301,STATEN IS
NYC FLEET / DPRLYONSPL2A-B,DPR,2,Murray Hulbert Ave,Staten Island,New York,10304,STATEN IS
NYC FLEET / DPRMBLOT7-S1,DPR,1,Father Capodanno Blvd,Midland Beach,New York,10305,STATEN IS
NYC FLEET / DPRMBLOT7-S2,DPR,1,Father Capodanno Blvd,Midland Beach,New York,10305,STATEN IS
NYC FLEET / DPRMBLOT8_1_L3,DPR,1,Father Capodanno Blvd,Midland Beach,New York,10305,STATEN IS
NYC FLEET / DPRMBLOT8_2_L3,DPR,1,Father Capodanno Blvd,Midland Beach,New York,10305,STATEN IS
NYC FLEET / DPRMBLOT8-S1,DPR,1,Father Capodanno Blvd,Midland Beach,New York,10305,
NYC FLEET / DPRMBLOT8-S2,DPR,1,Father Capodanno Blvd,Midland Beach,New York,10305,
NYC FLEET / DPRMBLOT8-S3,DPR,1,Father Capodanno Blvd,Midland Beach,New York,10305,
NYC FLEET / DPRMILLPOND1&2,DPR,2,Major Deegan Expy,West Bronx,New York,10451,
NYC FLEET / DPRNMEADOW#1A-B,DPR,2,St Transverse,New York,New York,10029,
NYC FLEET / DPRNMEADOW#2A-B,DPR,2,St Transverse,New York,New York,10029,
NYC FLEET / DPROAKRIDGE#1#2,DPR,2,Forest Park Dr,Woodhaven,New York,11421,
NYC FLEET / DPROCEANBR#1A-B,DPR,2,Father Capodanno Blvd,South Beach,New York,10305,STATEN IS
NYC FLEET / DPROCEANBR#2A-B,DPR,2,Father Capodanno Blvd,South Beach,New York,10305,STATEN IS
NYC FLEET / DPROLMBRADDICK1,DPR,1,Olmsted Dr,Corona,New York,11368,QUEENS
NYC FLEET / DPROLMSTD#10A-B,DPR,2,Roosevelt Ave,Corona,New York,11368,QUEENS
NYC FLEET / DPROLMSTD#11A-B,DPR,2,Roosevelt Ave,Corona,New York,11368,QUEENS
NYC FLEET / DPROLMSTD#12A-B,DPR,2,Roosevelt Ave,Corona,New York,11368,QUEENS
NYC FLEET / DPROLMSTD#13A-B,DPR,2,Roosevelt Ave,Corona,New York,11368,QUEENS
NYC FLEET / DPROLMSTD#14A-B,DPR,2,Olmsted Dr,Corona,New York,11368,QUEENS
NYC FLEET / DPROLMSTD#15A-B,DPR,2,Olmsted Dr,Corona,New York,11368,QUEENS
NYC FLEET / DPROLMSTD#16A-B,DPR,2,Olmsted Dr,Corona,New York,11368,QUEENS
NYC FLEET / DPROLMSTD#17A-B,DPR,2,Olmsted Dr,Corona,New York,11368,QUEENS
NYC FLEET / DPROLMSTD#18A-B,DPR,2,Olmsted Dr,Corona,New York,11368,QUEENS
NYC FLEET / DPROLMSTED#1A-B,DPR,2,Roosevelt Ave,Corona,New York,11368,QUEENS
NYC FLEET / DPROLMSTED#2A-B,DPR,2,Roosevelt Ave,Corona,New York,11368,QUEENS
NYC FLEET / DPROLMSTED#3A-B,DPR,2,Roosevelt Ave,Corona,New York,11368,QUEENS
NYC FLEET / DPROLMSTED#4A-B,DPR,2,Roosevelt Ave,Corona,New York,11368,QUEENS
NYC FLEET / DPROLMSTED#5A-B,DPR,2,Roosevelt Ave,Corona,New York,11368,QUEENS
NYC FLEET / DPROLMSTED#6A-B,DPR,2,Roosevelt Ave,Corona,New York,11368,QUEENS
NYC FLEET / DPROLMSTED#7A-B,DPR,2,Roosevelt Ave,Corona,New York,11368,QUEENS
NYC FLEET / DPROLMSTED#8A-B,DPR,2,Olmsted Dr,Corona,New York,11368,QUEENS
NYC FLEET / DPROLMSTED#9A-B,DPR,2,Olmsted Dr,Corona,New York,11368,QUEENS
NYC FLEET / DPROLMSTEDFOR#3,DPR,1,Olmsted Dr,Corona,New York,11368,QUEENS
NYC FLEET / DPROMSDFR#10#11,DPR,2,Olmsted Dr,Corona,New York,11368,QUEENS
NYC FLEET / DPROMSDFR#12#13,DPR,2,Olmsted Dr,Corona,New York,11368,QUEENS
NYC FLEET / DPROMSDFR#14#15,DPR,2,Olmsted Dr,Corona,New York,11368,QUEENS
NYC FLEET / DPROMSDFR#16,DPR,1,Grand Central Pkwy,Corona,New York,11368,
NYC FLEET / DPROMSTDFOR#1#2,DPR,2,Olmsted Dr,Corona,New York,11368,QUEENS
NYC FLEET / DPROMSTDFOR#4#5,DPR,2,Olmsted Dr,Corona,New York,11368,QUEENS
NYC FLEET / DPROMSTDFOR#6#7,DPR,2,Olmsted Dr,Corona,New York,11368,QUEENS
NYC FLEET / DPROMSTDFOR#8#9,DPR,2,Olmsted Dr,Corona,New York,11368,QUEENS
NYC FLEET / DPROVERLOOK1A-B,DPR,2,Park Ln,Kew Gardens,New York,11415,QUEENS
NYC FLEET / DPRPARADE1-2,DPR,2,Coney Island Ave,Flatbush,New York,11218,BROOKLYN
NYC FLEET / DPRPARADE3-4,DPR,2,Coney Island Ave,Flatbush,New York,11218,BROOKLYN
NYC FLEET / DPRPAYSONPLAY#1,DPR,2,Dyckman St,New York,New York,10034,MANHATTAN
NYC FLEET / DPRPEPBURR-S1,DPR,1,Burr Ave,Bronx,New York,10461,BRONX
NYC FLEET / DPRPEPBURR-S2,DPR,1,Burr Ave,Middletown - Pelham Bay,New York,10461,BRONX
NYC FLEET / DPRPEPBURR-S3,DPR,1,Burr Ave,Middletown - Pelham Bay,New York,10461,BRONX
NYC FLEET / DPRPRSPCTYARDS1,DPR,1,West Dr,Brooklyn,New York,11215,BROOKLYN
NYC FLEET / DPRPRSPCTYARDS2,DPR,1,West Dr,Brooklyn,New York,11215,BROOKLYN
NYC FLEET / DPRQBLIC#1&2,DPR,2,Queens Plaza S,Long Island City,New York,11101,QUEENS
NYC FLEET / DPRQBLIC#3&4,DPR,2,street and queens plaza south,Long Island City,New York,11101,
NYC FLEET / DPRQNSMSEUM#1#2,DPR,2,Avenue of the States,Corona,New York,11368,
NYC FLEET / DPRQNSSHOPS1A-B,DPR,2,88th Pl,Flushing,New York,11385,QUEENS
NYC FLEET / DPRQNSSHOPS2A-B,DPR,2,88th Pl,Flushing,New York,11385,QUEENS
NYC FLEET / DPRQNSSTHSE#1#2,DPR,2,Flushing Meadows Corona Park Rd,Queens,New York,11368,QUEENS
NYC FLEET / DPRQNSSTHSE#3#4,DPR,2,Flushing Meadows Corona Park Rd,QUEENS,New York,11368,QUEENS
NYC FLEET / DPRRANAQUA#1,DPR,1,Bronx River Pkwy,new york city,New York,10462,BRONX
NYC FLEET / DPRRANAQUA#2,DPR,1,Bronx River Pkwy,new york city,New York,10462,BRONX
NYC FLEET / DPRRANAQUA#3,DPR,1,Bronx River Pkwy,new york city,New York,10462,BRONX
NYC FLEET / DPRRANAQUA#4,DPR,1,Bronx River Pkwy,Bronx,New York,10462,BRONX
NYC FLEET / DPRRANAQUA#5,DPR,1,Bronx River Pkwy,Bronx,New York,10462,BRONX
NYC FLEET / DPRRB75ST1A-B,DPR,2,Beach 75th St,Far Rockaway,New York,11692,QUEENS
NYC FLEET / DPRRB75ST2A-B,DPR,2,Beach 75th St,Far Rockaway,New York,11692,QUEENS
NYC FLEET / DPRRIVERSIDE-S1,DPR,1,Hudson River Greenway,New York,New York,10025,
NYC FLEET / DPRRIVERSIDE-S2,DPR,1,NY-9A,New York,New York,10025,
NYC FLEET / DPRROCKAWAY106S,DPR,1,Shore Front Pkwy,Far Rockaway,New York,11694,QUEENS
NYC FLEET / DPRROCKAWAY17S,DPR,1,Beach 17th St.,Far Rockaway,New York,11691,
NYC FLEET / DPRROCKAWAY17ST,DPR,2,Seagirt Blvd,Far Rockaway,New York,11691,QUEENS
NYC FLEET / DPRROCKAWAY86S,DPR,1,Shore Front Pkwy,Rockaway Beach,New York,11693,QUEENS
NYC FLEET / DPRROCKAWAY97S,DPR,1,Shore Front Pkwy,Rockaway Park,New York,11694,QUEENS
NYC FLEET / DPRSBLOT4-S1,DPR,1,Father Capodanno Blvd,South Beach,New York,10305,STATEN IS
NYC FLEET / DPRSBLOT4-S2,DPR,1,Father Capodanno Blvd,South Beach,New York,10305,STATEN IS
NYC FLEET / DPRSID1HDQT#1#2,DPR,2,Clove Rd,Staten Island,New York,10301,STATEN IS
NYC FLEET / DPRSIFRSTRY#3#4,DPR,2,Slosson Ave,Staten Island,New York,10314,STATEN IS
NYC FLEET / DPRSIFRSTRY#5#6,DPR,2,Slosson Ave,Castleton Corners,New York,10314,STATEN IS
NYC FLEET / DPRSIFRSTRY#7#8,DPR,2,Slosson Ave,Castleton Corners,New York,10314,STATEN IS
NYC FLEET / DPRSISHOPS#1#2,DPR,2,Slosson Ave,staten island,New York,10314,STATEN IS
NYC FLEET / DPRSLTENNIS-S1,DPR,1,Revere St,Silver Lake,New York,10301,STATEN IS
NYC FLEET / DPRSLTENNIS-S2,DPR,1,Revere St,Silver Lake,New York,10301,STATEN IS
NYC FLEET / DPRSLVRLAKE1-CP,DPR,1,Revere St,Staten Island,New York,10301,STATEN IS
NYC FLEET / DPRSLVRLAKE1A-B,DPR,2,Revere St,Staten Island,New York,10301,STATEN IS
NYC FLEET / DPRSLVRLAKE2A-B,DPR,2,Revere St,Staten Island,New York,10301,STATEN IS
NYC FLEET / DPRSLVRLAKE3A-B,DPR,2,Revere St,Staten Island,New York,10301,STATEN IS
NYC FLEET / DPRSLVRLAKE4A-B,DPR,2,Revere St,Staten Island,New York,10301,STATEN IS
NYC FLEET / DPRSLVRLAKE5A-B,DPR,2,Revere St,Staten Island,New York,10301,STATEN IS
NYC FLEET / DPRSOUTHBEACH#1,DPR,1,Sand Ln,Staten Island,New York,10305,STATEN IS
NYC FLEET / DPRSOUTHBEACH#2,DPR,1,Sand Ln,staten Island,New York,10305,STATEN IS
NYC FLEET / DPRTOTENBLG4222,DPR,1,Weaver Ave,Bayside,New York,11359,QUEENS
NYC FLEET / DPRTOTTENBLG203,DPR,1,Totten Ave,Bayside,New York,11359,QUEENS
NYC FLEET / DPRTOTTENBLG422,DPR,1,Weaver Ave,Queens,New York,11359,QUEENS
NYC FLEET / DPRTOTTENBLG431,DPR,2,Walter Reed Rd,Bayside,New York,11359,QUEENS
NYC FLEET / DPRWFMARINA-DC1,DPR,1,Marina Rd,Corona,New York,11368,
NYC FLEET / DPRWFMARINA#1#2,DPR,2,Flushing Bay Promenade,East Elmhurst,New York,11369,
NYC FLEET / DPRWFMARINA#3,DPR,1,Marina Rd,Queens,New York,11368,
NYC FLEET / DPRWOLFESPP-S1,DPR,1,Chester Ave,New York,New York,10312,
NYC FLEET / DSNY_BETTSAVE-1,DSNY,1,53rd Ave,Queens,New York,11377,QUEENS
NYC FLEET / DSNY_BETTSAVE-2,DSNY,1,53rd Ave,Queens,New York,11377,QUEENS
NYC FLEET / DSNY_BK1-1,DSNY,2,Varick ave,East Williamsburg,New York,11237,BROOKLYN
NYC FLEET / DSNY_BK1-2 L3,DSNY,1,Varick Ave,East Williamsburg,New York,11237,BROOKLYN
NYC FLEET / DSNY_BK10-1,DSNY,2,1st ave,Brooklyn,New York,11232,BROOKLYN
NYC FLEET / DSNY_BK11-1,DSNY,2,Shore Pkwy,Brooklyn,New York,11214,BROOKLYN
NYC FLEET / DSNY_BK14-1,DSNY,2,Ralph Ave,Canarsie,New York,11236,BROOKLYN
NYC FLEET / DSNY_BK17-1,DSNY,1,Avenue D,Brooklyn,New York,11236,BROOKLYN
NYC FLEET / DSNY_BK17-2,DSNY,1,Avenue D,Brooklyn,New York,11236,BROOKLYN
NYC FLEET / DSNY_BK18-1,DSNY,1,Foster Ave,Brooklyn,New York,11236,BROOKLYN
NYC FLEET / DSNY_BK18-2,DSNY,1,Foster Ave,Brooklyn,New York,11236,BROOKLYN
NYC FLEET / DSNY_BK2-1,DSNY,2,Hamilton Ave,Gowanus,New York,11232,BROOKLYN
NYC FLEET / DSNY_BK3-1,DSNY,1,Johnson Ave,Brooklyn,New York,11237,BROOKLYN
NYC FLEET / DSNY_BK4-1,DSNY,2,Varick Ave,East Williamsburg,New York,11237,BROOKLYN
NYC FLEET / DSNY_BK4-2,DSNY,2,Varick Ave,East Williamsburg,New York,11237,BROOKLYN
NYC FLEET / DSNY_BK5-1,DSNY,2,Milford street,East New York,New York,11208,BROOKLYN
NYC FLEET / DSNY_BK6-1,DSNY,1,2nd Ave,brooklyn,New York,11215,BROOKLYN
NYC FLEET / DSNY_BK6A-1,DSNY,1,Van Brunt St,brooklyn,New York,11231,BROOKLYN
NYC FLEET / DSNY_BK7-1,DSNY,2,1st ave,Sunset Park,New York,11232,BROOKLYN
NYC FLEET / DSNY_BK8-1,DSNY,2,Pacific St,Crown Heights,New York,11213,BROOKLYN
NYC FLEET / DSNY_BKLC-1,DSNY,2,Forbell St,East New York,New York,11208,BROOKLYN
NYC FLEET / DSNY_BX10-1,DSNY,2,Zerega Ave,East Bronx,New York,10473,BRONX
NYC FLEET / DSNY_BX12-1,DSNY,2,E 233rd St,East Bronx,New York,10475,BRONX
NYC FLEET / DSNY_BX12-2,DSNY,1,E 233rd St,New York,New York,10475,BRONX
NYC FLEET / DSNY_BX12-3,DSNY,1,E 233rd St,New York,New York,10475,BRONX
NYC FLEET / DSNY_BX12-4,DSNY,1,E 233rd St,bronx,New York,10475,BRONX
NYC FLEET / DSNY_BX12-5,DSNY,1,E 233rd St,bronx,New York,10475,BRONX
NYC FLEET / DSNY_BX12-6,DSNY,1,E 233rd St,Bronx,New York,10475,BRONX
NYC FLEET / DSNY_BX12-7,DSNY,1,E 233rd St,Bronx,New York,10475,BRONX
NYC FLEET / DSNY_BX2-1,DSNY,2,Casanova St,West Bronx,New York,10474,BRONX
NYC FLEET / DSNY_BX5-1,DSNY,1,Cromwell Ave,Bronx,New York,10452,BRONX
NYC FLEET / DSNY_BX6-1,DSNY,2,176th St,West Bronx,New York,10460,
NYC FLEET / DSNY_BX6-2,DSNY,1,E 176th St,Bronx,New York,10460,BRONX
NYC FLEET / DSNY_BX6A-1,DSNY,1,E 176th St,Bronx,New York,10460,BRONX
NYC FLEET / DSNY_BX6A-2,DSNY,1,E 176th St,Bronx,New York,10460,BRONX
NYC FLEET / DSNY_BXENF-1,DSNY,2,West farms road,Bronx,New York,10460,BRONX
NYC FLEET / DSNY_BXENF-2,DSNY,2,W Farms Rd,Bronx,New York,10460,BRONX
NYC FLEET / DSNY_BXENF-3,DSNY,2,West farms road,Bronx,New York,10460,BRONX
NYC FLEET / DSNY_CBS-1,DSNY,1,Avenue D,Brooklyn,New York,11236,BROOKLYN
NYC FLEET / DSNY_CRS_5F_NE1,DSNY,2,58th St,Woodside,New York,11377,QUEENS
NYC FLEET / DSNY_CRS_5F_NE2,DSNY,2,58th St,Woodside,New York,11377,QUEENS
NYC FLEET / DSNY_CRS_BBM-1,DSNY,1,58th St,Woodside,New York,11377,QUEENS
NYC FLEET / DSNY_CRS_MM-1,DSNY,2,58th St,Woodside,New York,11377,QUEENS
NYC FLEET / DSNY_EMM_LAB-1,DSNY,1,58th St,Queens,New York,11377,QUEENS
NYC FLEET / DSNY_HENRY-1,DSNY,1,henry street,New York,New York,10002,MANHATTAN
NYC FLEET / DSNY_HENRY-2,DSNY,1,henry street,New York,New York,10002,MANHATTAN
NYC FLEET / DSNY_HENRY-3,DSNY,1,henry street,New York,New York,10002,MANHATTAN
NYC FLEET / DSNY_HENRY-4,DSNY,1,henry street,New York,New York,10002,MANHATTAN
NYC FLEET / DSNY_MBS-1,DSNY,1,West 26th street,New York,New York,10001,MANHATTAN
NYC FLEET / DSNY_MN1-1,DSNY,2,Spring St,New York,New York,10013,MANHATTAN
NYC FLEET / DSNY_MN10-1,DSNY,1,E 131st St,New York,New York,10037,MANHATTAN
NYC FLEET / DSNY_MN10-2,DSNY,1,E 131st St,New York,New York,10037,MANHATTAN
NYC FLEET / DSNY_MN10-3,DSNY,1,E 131st St,New York,New York,10037,MANHATTAN
NYC FLEET / DSNY_MN10-4,DSNY,1,E 131st St,New York,New York,10037,MANHATTAN
NYC FLEET / DSNY_MN10-5,DSNY,1,E 131st St,New York,New York,10037,MANHATTAN
NYC FLEET / DSNY_MN12-1,DSNY,2,West 215 street,New York,New York,10034,MANHATTAN
NYC FLEET / DSNY_MN2-1,DSNY,2,Spring St,New York,New York,10013,MANHATTAN
NYC FLEET / DSNY_MN3-1,DSNY,2,South Street Pier 36,New York,New York,10002,
NYC FLEET / DSNY_MN3-2,DSNY,2,South Street Pier 36,New York,New York,10002,
NYC FLEET / DSNY_MN3-3,DSNY,2,South Street pier 36,New York,New York,10002,
NYC FLEET / DSNY_MN4-1,DSNY,2,12th ave,New York,New York,10019,MANHATTAN
NYC FLEET / DSNY_MN5-1,DSNY,2,Spring St,New York,New York,10013,MANHATTAN
NYC FLEET / DSNY_MN7-1,DSNY,2,12 ave,New York,New York,10019,MANHATTAN
NYC FLEET / DSNY_MN7-2,DSNY,2,12th ave,New York,New York,10019,MANHATTAN
NYC FLEET / DSNY_MN7-3,DSNY,1,12th Ave,New York,New York,10019,MANHATTAN
NYC FLEET / DSNY_MN7-4,DSNY,1,12th Ave,New York,New York,10019,MANHATTAN
NYC FLEET / DSNY_MN7-5,DSNY,1,12th Ave,New York,New York,10019,MANHATTAN
NYC FLEET / DSNY_Q10-1,DSNY,2,150th Ave,Jamaica,New York,11430,QUEENS
NYC FLEET / DSNY_Q13J-1,DSNY,1,146th Ave,Jamaica,New York,11434,QUEENS
NYC FLEET / DSNY_Q13J-2,DSNY,2,146th Ave,Jamaica,New York,11434,QUEENS
NYC FLEET / DSNY_Q14-1,DSNY,1,Almeda Ave,Queens,New York,11691,QUEENS
NYC FLEET / DSNY_Q14-2,DSNY,2,Almeda Ave,Far Rockaway,New York,11691,QUEENS
NYC FLEET / DSNY_Q14-3,DSNY,2,Almeda Ave,Far Rockaway,New York,11691,QUEENS
NYC FLEET / DSNY_Q2-1,DSNY,1,58th St,Queens,New York,11377,QUEENS
NYC FLEET / DSNY_Q2-2,DSNY,2,58th St,Flushing,New York,11377,QUEENS
NYC FLEET / DSNY_Q3-1,DSNY,1,58th St,woodside,New York,11377,QUEENS
NYC FLEET / DSNY_Q4-1,DSNY,2,52nd Rd,Woodside,New York,11377,QUEENS
NYC FLEET / DSNY_Q4-2,DSNY,1,58th St,Woodside,New York,11377,QUEENS
NYC FLEET / DSNY_Q5-1,DSNY,2,48th street,Maspeth,New York,11377,
NYC FLEET / DSNY_Q5-2,DSNY,2,48th St,Maspeth,New York,11377,
NYC FLEET / DSNY_Q6-1,DSNY,1,53rd Ave,Queens,New York,11377,QUEENS
NYC FLEET / DSNY_Q7-1,DSNY,2,31st Ave,Flushing,New York,11354,QUEENS
NYC FLEET / DSNY_Q7-2,DSNY,2,31st ave,Flushing,New York,11354,QUEENS
NYC FLEET / DSNY_Q7-3,DSNY,2,122nd St,Flushing,New York,11354,QUEENS
NYC FLEET / DSNY_Q7A-1,DSNY,2,122nd St,Flushing,New York,11354,QUEENS
NYC FLEET / DSNY_Q7A-2,DSNY,2,122nd St,Flushing,New York,11354,QUEENS
NYC FLEET / DSNY_QBSROOF-1,DSNY,2,58th St,Woodside,New York,11377,QUEENS
NYC FLEET / DSNY_QBSROOF-2,DSNY,2,58th St,Woodside,New York,11377,QUEENS
NYC FLEET / DSNY_QBSROOF-3,DSNY,2,58th St,Woodside,New York,11377,QUEENS
NYC FLEET / DSNY_QBSROOF-4,DSNY,1,58th St,Woodside,New York,11377,QUEENS
NYC FLEET / DSNY_QBSSHOP-1,DSNY,1,58th St,Woodside,New York,11377,QUEENS
NYC FLEET / DSNY_QBSSHOP-2,DSNY,1,52nd Ave,Woodside,New York,11377,QUEENS
NYC FLEET / DSNY_RBS-1,DSNY,1,Muldoon Ave,Staten Island,New York,10314,STATEN IS
NYC FLEET / DSNY_SI2-1,DSNY,2,Richmond Ave,Heartland Village,New York,10314,STATEN IS
NYC FLEET / DSNY_SI2-2,DSNY,1,Richmond Ave,Staten Island,New York,10314,STATEN IS
NYC FLEET / DSNY_SI2-3,DSNY,2,Richmond Ave,Heartland Village,New York,10314,STATEN IS
NYC FLEET / DSNY_SI2-4,DSNY,1,Richmond Ave,Staten Island,New York,10314,STATEN IS
NYC FLEET / DSNY_SI3-1,DSNY,2,Muldoon Ave,Staten Island,New York,10314,STATEN IS
NYC FLEET / DSNY_SITS-1,DSNY,2,West Service Road,Staten Island,New York,10314,STATEN IS
NYC FLEET / DSNY_SPRING ST1,DSNY,2,Spring St,New York,New York,10014,MANHATTAN
NYC FLEET / DSNY_SPRING ST2,DSNY,2,Spring St,New York,New York,10014,MANHATTAN
NYC FLEET / DSNY_WASH_ST-1,DSNY,2,Washington Ave,Bronx,New York,10457,BRONX
NYC FLEET / FDNY 35ST LIC#1,FDNY,1,35th St,LIC,New York,11101,QUEENS
NYC FLEET / FDNY 35ST LIC#2,FDNY,1,35th St,LIC,New York,11101,QUEENS
NYC FLEET / FDNY 35ST LIC#3,FDNY,1,35th St,LIC,New York,11101,QUEENS
NYC FLEET / FDNY-FA_B14,FDNY,1,Randalls Island Fire Academy,New York,New York,10035,MANHATTAN
NYC FLEET / FDNY-FA_B9,FDNY,1,Randalls Island Fire Academy,New York,New York,10035,MANHATTAN
NYC FLEET / FDNY121ST,FDNY,1,121st St,Queens,New York,11418,QUEENS
NYC FLEET / FDNY35EMPIRE,FDNY,1,Empire Blvd,Brooklyn,New York,11205,BROOKLYN
NYC FLEET / FDNY48-58 35LIC,FDNY,1,35th St,Long Island City,New York,11101,QUEENS
NYC FLEET / FDNY9METROTECH1,FDNY,1,MetroTech Center,Brooklyn,New York,11201,BROOKLYN
NYC FLEET / FDNY9METROTECH2,FDNY,1,MetroTech Center,Brooklyn,New York,11201,BROOKLYN
NYC FLEET / FDNY9METROTECH3,FDNY,1,MetroTech Center,Brooklyn,New York,11201,BROOKLYN
NYC FLEET / FDNY9METROTECH4,FDNY,1,MetroTech Center,Brooklyn,New York,11201,BROOKLYN
NYC FLEET / FDNY9METROTECH5,FDNY,1,MetroTech Center,Brooklyn,New York,11201,BROOKLYN
NYC FLEET / FDNY9METROTECH6,FDNY,1,MetroTech Center,Brooklyn,New York,11201,BROOKLYN
NYC FLEET / FDNY9METROTECH7,FDNY,1,MetroTech Center,Brooklyn,New York,11201,BROOKLYN
NYC FLEET / FDNYBRIELLESI,FDNY,1,Brielle Ave,Staten Island,New York,10314,STATEN IS
NYC FLEET / FDNYCIHOSP,FDNY,1,E 6th St,Brooklyn,New York,11235,BROOKLYN
NYC FLEET / FDNYE176ST,FDNY,1,E 176th St,Bronx,New York,10457,BRONX
NYC FLEET / FDNYFORTTOTTEN1,FDNY,1,Weaver Ave,Bayside,New York,11359,QUEENS
NYC FLEET / FDNYFORTTOTTEN2,FDNY,1,Weaver Ave,Bayside,New York,11359,QUEENS
NYC FLEET / FDNYREVIEWAVE#2,FDNY,1,Review Ave,Long Island City,New York,11101,QUEENS
NYC FLEET / MAYOR_HRO1,MAYOR,1,Cross Bay Blvd,Howard Beach,New York,11414,
NYC FLEET / MAYOR_HRO2,MAYOR,1,Cross Bay Blvd,Howard Beach,New York,11414,
NYC FLEET / NYCHA 23ASH1A B,NYCHA,2,Ash St,Greenpoint,New York,11222,BROOKLYN
NYC FLEET / NYCHA 23ASH2A B,NYCHA,2,Ash St,Greenpoint,New York,11222,BROOKLYN
NYC FLEET / NYCHA 23ASH3A B,NYCHA,2,Ash St,Greenpoint,New York,11222,BROOKLYN
NYC FLEET / NYCHA_ALSMITH,NYCHA,1,Robert F. Wagner Sr. Place,New York,New York,10038,
NYC FLEET / NYCHA_LIC1A-B,NYCHA,2,49th Ave,LIC,New York,11101,
NYC FLEET / NYCHA_LIC2A-B,NYCHA,2,49th Ave,LIC,New York,11101,
NYC FLEET / NYCHAALSMITH02,NYCHA,2,St. James Pl,New York,New York,10038,MANHATTAN
NYC FLEET / NYPD_CRS_1_L3,NYPD,1,58th St,Flushing,New York,11377,QUEENS
NYC FLEET / NYPD_CRS_2_L3,NYPD,1,58th St,Flushing,New York,11377,QUEENS
NYC FLEET / NYPD105PCT-2,NYPD,2,222nd St,Queens Village,New York,11428,QUEENS
NYC FLEET / NYPD111PCT-1,NYPD,2,Northern Blvd,Bayside,New York,11361,
NYC FLEET / NYPD122PCT-1,NYPD,2,Hylan Blvd,New Dorp,New York,10306,STATEN IS
NYC FLEET / NYPD25PCT-1,NYPD,2,E 119th St,New York,New York,10035,MANHATTAN
NYC FLEET / NYPD44PCT-1,NYPD,2,River Ave,Concourse,New York,10452,BRONX
NYC FLEET / NYPD49PCT-1,NYPD,2,Eastchestr Rd,East Bronx,New York,10461,BRONX
NYC FLEET / NYPD60PCT-1,NYPD,2,W 8th St,Coney Island,New York,11224,BROOKLYN
NYC FLEET / NYPD61PCT-1,NYPD,2,Gravesend Neck Rd,Sheepshead Bay,New York,11223,BROOKLYN
NYC FLEET / NYPD72PCT-1,NYPD,2,4th Ave,Greenwood,New York,11232,BROOKLYN
NYC FLEET / NYPD73PCT-1,NYPD,2,Thomas S Boyland St,Brownsville,New York,11212,BROOKLYN
NYC FLEET / NYPD7PCT-1,NYPD,2,1/2 Pitt St,New York,New York,10002,
NYC FLEET / NYPDACADEMY-S1,NYPD,1,College Point Blvd,Flushing,New York,11354,QUEENS
NYC FLEET / NYPDACADEMY-S2,NYPD,1,College Point Blvd,Flushing,New York,11354,QUEENS
NYC FLEET / NYPDACADEMY-S3,NYPD,1,28th Ave,Flushing,New York,11354,QUEENS
NYC FLEET / NYPDACADEMY-S4,NYPD,1,28th Ave,Flushing,New York,11354,QUEENS
NYC FLEET / NYPDBXTRAFFIC-1,NYPD,1,Third Ave,New York,New York,10457,BRONX
NYC FLEET / NYPDBXTRAFFIC-2,NYPD,1,Third Ave,New York,New York,10457,BRONX
NYC FLEET / NYPDERIEBASIN,NYPD,1,Columbia St,Red Hook,New York,11231,BROOKLYN
NYC FLEET / NYPDFSD-CRS1A-B,NYPD,2,58th St,Flushing,New York,11377,QUEENS
NYC FLEET / NYPDHQ_1PP_1_L3,NYPD,1,Police Plaza Path,New York,New York,10038,
NYC FLEET / NYPDHQ_1PP_2_L3,NYPD,1,Avenue of the Finest,New York,New York,10038,MANHATTAN
NYC FLEET / NYPDHQ_1PP_3_L3,NYPD,1,Rose St,New York,New York,10038,
NYC FLEET / NYPDHQ_1PP_4_L3,NYPD,1,Police Plaza Path,New York,New York,10038,
NYC FLEET / NYPDHQ_1PP_5_L3,NYPD,1,Rose St,New York,New York,10038,
NYC FLEET / NYPDHQ_1PP_6_L3,NYPD,1,Frankfort St,New York,New York,10038,MANHATTAN
NYC FLEET / NYPDSSD_DK_1_L3,NYPD,1,Dutch Kill street,LIC,New York,11101,
NYC FLEET / NYPDSSHOP4_1_L3,NYPD,1,Metropolitan Ave,New York,New York,11385,QUEENS
NYC FLEET / OCME SISEAVIEW,OCME,2,Brielle Ave,Staten Island,New York,10314,STATEN IS
NYC FLEET / OCME_26ST-1,OCME,2,E 26th St,New York,New York,10016,MANHATTAN
NYC FLEET / OCME_BKLN-1,OCME,2,Winthrop St,East Flatbush,New York,11203,BROOKLYN
NYC FLEET / OCME_QUEENS-1,OCME,2,82nd Dr,Jamaica,New York,11432,QUEENS
NYC FLEET / OEMHQ_1_L3,OEM,1,Cadman Plaza E,Downtown Brooklyn,New York,11201,BROOKLYN
NYC FLEET / OEMHQ_2_L3,OEM,1,Cadman Plaza E,Downtown Brooklyn,New York,11201,BROOKLYN
NYC FLEET / OEMHQARC-1,OEM,1,Red Cross Pl,Downtown Brooklyn,New York,11201,BROOKLYN
NYC FLEET / OEMHQARC-2,OEM,1,Red Cross Pl,Downtown Brooklyn,New York,11201,BROOKLYN
NYC FLEET / OEMHQARC-3,OEM,1,Cadman Plaza E,Brooklyn,New York,11201,BROOKLYN
NYC FLEET / OEMHQARC-4,OEM,1,Cadman Plaza E,Brooklyn,New York,11201,BROOKLYN
NYC FLEET / OEMHQCADMAN-1,OEM,1,Cadman Plaza E,Brooklyn,New York,11201,BROOKLYN
NYC FLEET / OEMHQCADMAN-10,OEM,1,Cadman Plaza E,Brooklyn,New York,11201,BROOKLYN
NYC FLEET / OEMHQCADMAN-11,OEM,1,Cadman Plaza E,Brooklyn,New York,11201,BROOKLYN
NYC FLEET / OEMHQCADMAN-12,OEM,1,Cadman Plaza E,Brooklyn,New York,11201,BROOKLYN
NYC FLEET / OEMHQCADMAN-2,OEM,1,Cadman Plaza E,Brooklyn,New York,11201,BROOKLYN
NYC FLEET / OEMHQCADMAN-3,OEM,1,Cadman Plaza E,Brooklyn,New York,11201,BROOKLYN
NYC FLEET / OEMHQCADMAN-4,OEM,1,Cadman Plaza E,Brooklyn,New York,11201,BROOKLYN
NYC FLEET / OEMHQCADMAN-5,OEM,1,Cadman Plaza E,Brooklyn,New York,11201,BROOKLYN
NYC FLEET / OEMHQCADMAN-6,OEM,1,Cadman Plaza E,Brooklyn,New York,11201,BROOKLYN
NYC FLEET / OEMHQCADMAN-7,OEM,1,Cadman Plaza E,Brooklyn,New York,11201,BROOKLYN
NYC FLEET / OEMHQCADMAN-8,OEM,1,Cadman Plaza E,Brooklyn,New York,11201,BROOKLYN
NYC FLEET / OEMHQCADMAN-9,OEM,1,Cadman Plaza E,Brooklyn,New York,11201,BROOKLYN
NYC FLEET / OEMWAREHSE_1_L3,OEM,1,Flushing Ave,Brooklyn,New York,11206,BROOKLYN
NYC FLEET / OEMWAREHSE_2_L3,OEM,1,Flushing Ave,East Williamsburg,New York,11206,BROOKLYN
NYC FLEET / PROB_340BAYST,PROB,2,Bay St,Tompkinsville,New York,10301,STATEN IS
